ABS-4 (MOBISAT-1)       
1 28184U 04007A   17038.12881814  .00000022  00000-0  00000+0 0  9999
2 28184   0.0051  51.4195 0001724 269.4862 283.8654  1.00270849 47319
EUTELSAT 7A             
1 28187U 04008A   17038.01939439  .00000028  00000-0  00000+0 0  9994
2 28187   0.0704 342.0758 0003895 318.7832 210.4185  1.00271250 47319
DIRECTV 7S              
1 28238U 04016A   17038.36259813 -.00000019  00000-0  00000+0 0  9990
2 28238   0.0469 286.0611 0002906  32.3809 190.6613  1.00272501 46802
AMC-11 (GE-11)          
1 28252U 04017A   17037.44932101  .00000052  00000-0  00000+0 0  9999
2 28252   0.0195  14.9905 0003159 315.5802 196.9206  1.00272295 46434
INTELSAT 10-02          
1 28358U 04022A   17037.66684230 -.00000029  00000-0  00000+0 0  9998
2 28358   0.0132 139.7792 0000605 104.2582 131.9991  1.00270718 46363
APSTAR 5 (TELSTAR 18)   
1 28364U 04024A   17036.76784265 -.00000309  00000-0  00000+0 0  9997
2 28364   0.0104  69.7033 0002638 248.2729 232.5122  1.00270947 46277
ANIK F2                 
1 28378U 04027A   17036.57604431 -.00000064  00000-0  00000+0 0  9998
2 28378   0.0167  31.7364 0000470 236.0186 324.4254  1.00271760 46070
AMAZONAS 1              
1 28393U 04031A   17038.16515483 -.00000267  00000-0  00000+0 0  9990
2 28393   1.4822  84.3843 0005575 237.9105 198.4001  1.00269980 45864
AMC-15                  
1 28446U 04041A   17037.73993390 -.00000107  00000-0  00000+0 0  9992
2 28446   0.0483 287.6492 0002421  28.7887 341.9292  1.00271461 45111
AMC-16                  
1 28472U 04048A   17037.40256542 -.00000223  00000-0  00000+0 0  9992
2 28472   0.0483 286.1568 0002713  20.0557 250.4020  1.00271640 44549
NSS-10 (AMC-12)         
1 28526U 05003A   17038.16565162 -.00000270  00000-0  00000+0 0  9991
2 28526   0.0425 292.6717 0003017  24.6058 202.3514  1.00271083 44058
XTAR-EUR                
1 28542U 05005A   17037.53923623  .00000134  00000-0  00000+0 0  9999
2 28542   0.0104  94.2427 0003224 228.3769  37.3284  1.00272324 43919
XM-3 (RHYTHM)           
1 28626U 05008A   17037.40256542 -.00000223  00000-0  00000+0 0  9990
2 28626   0.0025 266.8729 0000220  34.3290 255.2953  1.00271520 43790
INMARSAT 4-F1           
1 28628U 05009A   17037.25108776 -.00000277  00000-0  00000+0 0  9990
2 28628   2.8570  10.1357 0003171 306.7763  53.5203  1.00272463 43405
EXPRESS-AM2             
1 28629U 05010A   17037.49770354 -.00000266  00000-0  00000+0 0  9994
2 28629   2.0885  76.9814 0006923  31.2910  11.2225  0.99042896 43437
APSTAR 6                
1 28638U 05012A   17036.67321914 -.00000333  00000-0  00000-0 0  9995
2 28638   0.0278  93.1482 0001730 226.4896 192.7007  1.00269871 68139
SPACEWAY 1              
1 28644U 05015A   17036.56298071 -.00000116  00000-0  00000-0 0  9999
2 28644   0.0422 260.1812 0000177 349.1194 346.3092  1.00271031 12319
DIRECTV 8               
1 28659U 05019A   17035.90442098 -.00000128  00000-0  00000-0 0  9999
2 28659   0.0138  78.3261 0003293 240.8959  40.7284  1.00271437 42865
GALAXY 28 (G-28)        
1 28702U 05022A   17036.37007469 -.00000198  00000-0  00000-0 0  9990
2 28702   0.0203  87.8462 0001018 307.6761 144.4111  1.00266095 42541
EXPRESS-AM3             
1 28707U 05023A   17035.97225536 -.00000334  00000-0  00000-0 0  9990
2 28707   0.0258 168.0083 0001533 160.7716 259.5044  1.00269952 42567
THAICOM 4               
1 28786U 05028A   17036.51135312 -.00000377  00000-0  00000+0 0  9991
2 28786   0.0152  88.1568 0002375 219.2925 131.9453  1.00271008 42049
GALAXY 14 (G-14)        
1 28790U 05030A   17038.32872970  .00000017  00000-0  00000+0 0  9998
2 28790   0.0044 339.0129 0002621 337.3593 174.5672  1.00270833 42043
ANIK F1R                
1 28868U 05036A   17036.66495944 -.00000089  00000-0  00000-0 0  9998
2 28868   0.0214 343.5233 0002442 355.1131 289.4162  1.00270882 12233
GALAXY 15 (G-15)        
1 28884U 05041A   17036.34909360  .00000065  00000-0  00000-0 0  9992
2 28884   0.0420 271.5307 0002105  62.1405 154.6503  1.00271284 41474
SYRACUSE 3A             
1 28885U 05041B   17036.86889766  .00000113  00000-0  00000+0 0  9990
2 28885   0.0238  87.3173 0002601 230.9856 177.6610  1.00273805 41455
INMARSAT 4-F2           
1 28899U 05044A   17037.47155217 -.00000006  00000-0  00000+0 0  9995
2 28899   2.5495  10.0902 0003498 279.4665  80.8704  1.00274221 41234
TELKOM 2                
1 28902U 05046A   17036.92404900 -.00000379  00000-0  00000-0 0  9991
2 28902   0.0347 246.5528 0001145  63.9712 276.3555  1.00269849 41162
SPACEWAY 2              
1 28903U 05046B   17037.46367573 -.00000143  00000-0  00000+0 0  9994
2 28903   0.0145  95.9337 0000476 194.1639 274.5286  1.00267516 41221
INSAT-4A                
1 28911U 05049A   17036.39224445 -.00000179  00000-0  00000-0 0  9997
2 28911   0.0653 270.5100 0006804  25.7466  63.6471  1.00270824 11441
METEOSAT-9 (MSG-2)      
1 28912U 05049B   17037.25107295  .00000048  00000-0  00000+0 0  9990
2 28912   1.9492  70.4563 0000838 286.7225 239.4566  1.00280857 40803
EUTELSAT 172A (GE-23)   
1 28924U 05052A   17036.60001278 -.00000021  00000-0  00000-0 0  9992
2 28924   0.0667  24.4079 0006641 289.8136 209.6795  1.00271862 18077
ECHOSTAR 10             
1 28935U 06003A   17038.19350014 -.00000075  00000-0  00000+0 0  9990
2 28935   0.0574 279.2643 0001309   9.8099 167.8651  1.00272098 40250
HIMAWARI-7 (MTSAT-2)    
1 28937U 06004A   17038.37742223 -.00000263  00000-0  00000+0 0  9999
2 28937   0.0547 270.4962 0003771  53.2984  94.7550  1.00272388 40090
SPAINSAT                
1 28945U 06007A   17037.70254672 -.00000234  00000-0  00000+0 0  9991
2 28945   0.0488 255.1304 0004701  37.1464  67.6432  1.00270329 39966
EUTELSAT HOT BIRD 13E   
1 28946U 06007B   17037.58356671  .00000069  00000-0  00000+0 0  9995
2 28946   0.0244 185.2926 0003401 104.8531  69.7879  1.00270949 40039
JCSAT-5A                
1 29045U 06010A   17037.93293302 -.00000346  00000-0  00000+0 0  9999
2 29045   0.0361 270.8621 0002235  48.1673 286.0930  1.00278058 39673
ASTRA 1KR               
1 29055U 06012A   17036.68770187  .00000104  00000-0  00000-0 0  9996
2 29055   0.0543 277.1227 0004513   0.1170 125.5147  1.00268987 11430
GOES 13                 
1 29155U 06018A   17035.83202610 -.00000263  00000-0  00000-0 0  9997
2 29155   0.3039 100.2605 0002849 306.7632 312.9755  1.00276522  9100
EUTELSAT 113 WEST A     
1 29162U 06020A   17035.93807758 -.00000050  00000-0  00000+0 0  9996
2 29162   0.0085 100.9323 0002640 231.7940  27.2348  1.00271231 39185
THAICOM 5               
1 29163U 06020B   17036.87377510 -.00000137  00000-0  00000-0 0  9996
2 29163   0.0478 263.5088 0005923  43.8219 221.8900  1.00272641 39221
GALAXY 16 (G-16)        
1 29236U 06023A   17038.37373329 -.00000147  00000-0  00000+0 0  9991
2 29236   0.0547 261.5814 0002947  61.2780 210.3293  1.00271175 39009
EUTELSAT HOT BIRD 13B   
1 29270U 06032A   17037.25158350  .00000070  00000-0  00000+0 0  9994
2 29270   0.0647 357.0936 0005817 327.1831 275.8226  1.00270444 38586
JCSAT-3A                
1 29272U 06033A   17036.91597804 -.00000361  00000-0  00000-0 0  9995
2 29272   0.0155  60.2527 0002316 234.6878 299.0295  1.00270549 13465
SYRACUSE 3B             
1 29273U 06033B   17036.25431042 -.00000058  00000-0  00000+0 0  9996
2 29273   0.0163  87.5803 0006044 222.1220 272.2035  1.00271738 38462
KOREASAT 5 (MUGUNGWHA 5)
1 29349U 06034A   17037.75981722 -.00000376  00000-0  00000+0 0  9995
2 29349   0.0223  98.5842 0000776 207.5353 217.5179  1.00271055 38360
ZHONGXING-22A           
1 29398U 06038A   17037.87856079 -.00000339  00000-0  00000+0 0  9991
2 29398   5.5641  58.5802 0007204 226.5615 270.0296  1.00272765 38144
DIRECTV 9S              
1 29494U 06043A   17036.56298071 -.00000128  00000-0  00000-0 0  9998
2 29494   0.0148 115.6383 0003603 201.5205 280.2789  1.00271298 17124
OPTUS D1                
1 29495U 06043B   17037.22997038 -.00000128  00000-0  00000+0 0  9991
2 29495   0.0139  98.1640 0003642 214.5596  66.5945  1.00271437 37874
XM-4 (BLUES)            
1 29520U 06049A   17038.36030260 -.00000043  00000-0  00000+0 0  9993
2 29520   0.0039 121.1419 0000288 220.6556 170.2974  1.00271864 37734
BADR-4                  
1 29526U 06051A   17037.09981611  .00000128  00000-0  00000+0 0  9999
2 29526   0.0480 344.0159 0006589 334.7516 239.5543  1.00272539 37618
FENGYUN 2D              
1 29640U 06053A   17036.92126397 -.00000377  00000-0  10000-3 0  9993
2 29640   4.2098  65.0735 0004159 330.5576 195.9225  1.00275233 37286
WILDBLUE-1              
1 29643U 06054A   17037.21230323 -.00000066  00000-0  00000+0 0  9995
2 29643   0.0115 163.5958 0002038 146.1959 151.9743  1.00271927 37276
AMC-18                  
1 29644U 06054B   17038.37358083 -.00000109  00000-0  00000+0 0  9996
2 29644   0.0453 277.2469 0002836  35.4931 214.4451  1.00270769 37294
MEASAT-3                
1 29648U 06056A   17036.98173062 -.00000257  00000-0  00000+0 0  9993
2 29648   0.0380 136.2878 0000572 194.1661 250.7574  1.00270727 37274
KIKU-8 (ETS-VIII)       
1 29656U 06059A   17036.95083979 -.00000192  00000-0  00000+0 0  9997
2 29656   5.3661  60.0593 0012456 223.5055 136.5022  0.99002054 37158
INSAT-4B                
1 30793U 07007A   17037.05161957 -.00000274  00000-0  00000+0 0  9991
2 30793   0.0548 269.2772 0002328 123.5522 215.6254  1.00271057 36288
SKYNET 5A               
1 30794U 07007B   17037.59002116 -.00000288  00000-0  00000+0 0  9997
2 30794   0.0681  20.0827 0003465 302.6231 121.7499  1.00270170 36385
ANIK F3                 
1 31102U 07009A   17037.44963355 -.00000018  00000-0  00000+0 0  9999
2 31102   0.0166  93.9384 0002361 226.8664 219.0922  1.00270457 36060
ASTRA 1L                
1 31306U 07016A   17036.68770187  .00000104  00000-0  00000-0 0  9993
2 31306   0.0702 300.6955 0005463   5.9961  96.0429  1.00271986 10791
